H1 CPF 01  gfz 2022 10 21 12  7942 terrasarx 
H2 0702601  6201 31698    2022 10 21 12 59 42 2022 10 26 00 00 42   120 1 1  0 0 0
H9
10 0 59877  15822.000000  0   -4075244.326  -2563677.907  -4934317.992
10 0 59877  15942.000000  0   -4694227.338  -2697842.107  -4266998.374
10 0 59877  16062.000000  0   -5233390.132  -2774935.053  -3524914.215
10 0 59877  16182.000000  0   -5682255.486  -2795051.463  -2721001.467
10 0 59877  16302.000000  0   -6031917.498  -2759448.895  -1869312.337
10 0 59877  16422.000000  0   -6275227.886  -2670502.179   -984771.066
10 0 59877  16542.000000  0   -6406951.014  -2531634.177    -82909.913
10 0 59877  16662.000000  0   -6423882.452  -2347224.222    820409.074
10 0 59877  16782.000000  0   -6324928.355  -2122496.371   1709281.425
10 0 59877  16902.000000  0   -6111140.930  -1863390.131   2568050.348
10 0 59877  17022.000000  0   -5785709.958  -1576417.005   3381590.513
10 0 59877  17142.000000  0   -5353912.768  -1268506.762   4135582.116
10 0 59877  17262.000000  0   -4823019.629   -946846.797   4816767.946
10 0 59877  17382.000000  0   -4202161.877   -618719.890   5413185.608
10 0 59877  17502.000000  0   -3502167.043   -291344.068   5914375.917
10 0 59877  17622.000000  0   -2735361.263     28283.132   6311563.099
10 0 59877  17742.000000  0   -1915344.470    333531.219   6597802.550
10 0 59877  17862.000000  0   -1056744.095    618270.676   6768095.841
10 0 59877  17982.000000  0    -174951.977    876994.022   6819472.267
10 0 59877  18102.000000  0     714151.368   1104920.948   6751036.819
10 0 59877  18222.000000  0    1594481.594   1298086.388   6563984.882
10 0 59877  18342.000000  0    2450040.530   1453409.869   6261582.489
10 0 59877  18462.000000  0    3265206.474   1568744.632   5849113.381
10 0 59877  18582.000000  0    4025021.945   1642906.242   5333792.162
10 0 59877  18702.000000  0    4715471.032   1675680.126   4724643.594
10 0 59877  18822.000000  0    5323744.084   1667808.904   4032352.357
10 0 59877  18942.000000  0    5838486.250   1620958.351   3269079.205
10 0 59877  19062.000000  0    6250017.523   1537662.847   2448246.882
10 0 59877  19182.000000  0    6550524.424   1421250.803   1584303.939
10 0 59877  19302.000000  0    6734216.777   1275752.866    692464.980
10 0 59877  19422.000000  0    6797444.262   1105794.640   -211564.051
10 0 59877  19542.000000  0    6738771.562    916476.496  -1111871.610
10 0 59877  19662.000000  0    6559006.559    713242.998  -1992629.754
10 0 59877  19782.000000  0    6261184.519    501745.500  -2838379.198
10 0 59877  19902.000000  0    5850508.144    287702.682  -3634306.074
10 0 59877  20022.000000  0    5334245.365     76761.905  -4366504.030
10 0 59877  20142.000000  0    4721586.777   -125635.262  -5022215.547
10 0 59877  20262.000000  0    4023469.525   -314379.677  -5590047.350
10 0 59877  20382.000000  0    3252372.889   -484810.927  -6060159.856
10 0 59877  20502.000000  0    2422087.779   -632821.672  -6424428.135
10 0 59877  20622.000000  0    1547465.886   -754946.885  -6676570.032
10 0 59877  20742.000000  0     644155.415   -848437.918  -6812244.113
10 0 59877  20862.000000  0    -271675.830   -911319.278  -6829116.978
10 0 59877  20982.000000  0   -1183623.600   -942427.357  -6726898.045
10 0 59877  21102.000000  0   -2075334.101   -941431.375  -6507344.653
10 0 59877  21222.000000  0   -2930791.085   -908835.541  -6174234.146
10 0 59877  21342.000000  0   -3734596.680   -845963.055  -5733305.511
10 0 59877  21462.000000  0   -4472246.823   -754922.042  -5192172.208
10 0 59877  21582.000000  0   -5130395.340   -638553.304  -4560201.592
10 0 59877  21702.000000  0   -5697100.656   -500361.495  -3848364.280
10 0 59877  21822.000000  0   -6162052.501   -344430.331  -3069053.783
10 0 59877  21942.000000  0   -6516771.354   -175322.587  -2235876.974
10 0 59877  22062.000000  0   -6754776.322      2031.581  -1363420.151
10 0 59877  22182.000000  0   -6871717.623    182457.441   -466992.345
10 0 59877  22302.000000  0   -6865465.468    360665.137    437649.880
10 0 59877  22422.000000  0   -6736154.724    531383.128   1334585.639
10 0 59877  22542.000000  0   -6486186.143    689491.801   2208018.220
10 0 59877  22662.000000  0   -6120181.272    830153.993   3042562.826
10 0 59877  22782.000000  0   -5644891.690    948939.161   3823526.025
10 0 59877  22902.000000  0   -5069065.615   1041937.700   4537169.740
10 0 59877  23022.000000  0   -4403276.878   1105862.715   5170954.942
10 0 59877  23142.000000  0   -3659720.823   1138136.628   5713760.527
10 0 59877  23262.000000  0   -2851982.527   1136961.304   6156075.447
10 0 59877  23382.000000  0   -1994781.102   1101369.850   6490161.361
10 0 59877  23502.000000  0   -1103694.807   1031259.966   6710182.033
10 0 59877  23622.000000  0    -194874.901    927407.124   6812297.920
10 0 59877  23742.000000  0     715246.838    791457.995   6794728.290
10 0 59877  23862.000000  0    1610253.909    625904.342   6657780.146
10 0 59877  23982.000000  0    2474039.834    434037.894   6403843.356
10 0 59877  24102.000000  0    3291097.579    219886.515   6037352.606
10 0 59877  24222.000000  0    4046800.180    -11867.650   5564714.965
10 0 59877  24342.000000  0    4727666.227   -255986.553   4994203.572
10 0 59877  24462.000000  0    5321606.388   -506789.155   4335818.793
10 0 59877  24582.000000  0    5818146.368   -758277.290   3601118.045
10 0 59877  24702.000000  0    6208622.192  -1004271.513   2803015.849
10 0 59877  24822.000000  0    6486341.538  -1238554.118   1955555.902
10 0 59877  24942.000000  0    6646706.423  -1455014.879   1073660.175
10 0 59877  25062.000000  0    6687295.626  -1647797.876    172861.112
10 0 59877  25182.000000  0    6607904.298  -1811445.298   -730980.845
10 0 59877  25302.000000  0    6410536.611  -1941032.452  -1621965.778
10 0 59877  25422.000000  0    6099354.952  -2032292.390  -2484442.556
10 0 59877  25542.000000  0    5680585.087  -2081726.115  -3303290.264
10 0 59877  25662.000000  0    5162381.933  -2086695.974  -4064186.068
10 0 59877  25782.000000  0    4554660.604  -2045500.178  -4753855.336
10 0 59877  25902.000000  0    3868896.026  -1957427.401  -5360299.924
10 0 59877  26022.000000  0    3117895.903  -1822790.256  -5872999.270
10 0 59877  26142.000000  0    2315555.190  -1642936.904  -6283081.888
10 0 59877  26262.000000  0    1476596.846  -1420241.144  -6583468.848
10 0 59877  26382.000000  0     616300.818  -1158071.402  -6768985.291
10 0 59877  26502.000000  0    -249770.924   -860740.124  -6836439.822
10 0 59877  26622.000000  0   -1106050.126   -533433.599  -6784672.943
10 0 59877  26742.000000  0   -1937235.603   -182123.535  -6614575.123
10 0 59877  26862.000000  0   -2728560.646    186539.336  -6329072.155
10 0 59877  26982.000000  0   -3466049.243    565346.907  -5933079.942
10 0 59877  27102.000000  0   -4136760.388    946670.110  -5433429.842
10 0 59877  27222.000000  0   -4729016.755   1322607.317  -4838761.639
10 0 59877  27342.000000  0   -5232613.458   1685143.923  -4159386.819
10 0 59877  27462.000000  0   -5639002.413   2026319.994  -3407119.332
10 0 59877  27582.000000  0   -5941447.439   2338400.763  -2595078.233
10 0 59877  27702.000000  0   -6135147.751   2614047.632  -1737463.833
10 0 59877  27822.000000  0   -6217325.259   2846485.694   -849310.225
10 0 59877  27942.000000  0   -6187272.951   3029663.347     53781.445
10 0 59877  28062.000000  0   -6046361.692   3158399.150    955924.213
10 0 59877  28182.000000  0   -5798003.754   3228512.312   1841233.476
10 0 59877  28302.000000  0   -5447575.165   3236933.269   2694115.755
10 0 59877  28422.000000  0   -5002298.961   3181791.482   3499551.310
10 0 59877  28542.000000  0   -4471092.193   3062477.851   4243365.743
10 0 59877  28662.000000  0   -3864380.248   2879680.057   4912482.898
10 0 59877  28782.000000  0   -3193885.338   2635391.475   5495154.679
10 0 59877  28902.000000  0   -2472393.015   2332893.744   5981166.091
10 0 59877  29022.000000  0   -1713501.391   1976712.305   6362010.027
10 0 59877  29142.000000  0    -931359.468   1572546.633   6631029.879
10 0 59877  29262.000000  0    -140401.412   1127176.898   6783528.274
10 0 59877  29382.000000  0     644919.267    648348.787   6816843.940
10 0 59877  29502.000000  0    1410392.958    144638.716   6730394.953
10 0 59877  29622.000000  0    2142309.705   -374698.924   6525688.465
10 0 59877  29742.000000  0    2827704.057   -899901.203   6206297.014
10 0 59877  29862.000000  0    3454585.986  -1420879.048   5777800.858
10 0 59877  29982.000000  0    4012154.323  -1927410.642   5247696.115
10 0 59877  30102.000000  0    4490987.009  -2409341.908   4625268.885
10 0 59877  30222.000000  0    4883206.502  -2856790.802   3921439.092
10 0 59877  30342.000000  0    5182617.569  -3260352.114   3148572.891
10 0 59877  30462.000000  0    5384812.379  -3611296.487   2320265.089
10 0 59877  30582.000000  0    5487239.080  -3901759.407   1451097.590
10 0 59877  30702.000000  0    5489234.000  -4124916.622    556378.071
10 0 59877  30822.000000  0    5392015.777  -4275139.513   -348136.818
10 0 59877  30942.000000  0    5198641.547  -4348128.170  -1246527.659
10 0 59877  31062.000000  0    4913925.445  -4341016.843  -2123001.574
10 0 59877  31182.000000  0    4544321.950  -4252450.011  -2962177.481
10 0 59877  31302.000000  0    4097777.827  -4082627.614  -3749360.848
10 0 59877  31422.000000  0    3583556.517  -3833318.132  -4470802.693
10 0 59877  31542.000000  0    3012040.261  -3507840.491  -5113937.277
10 0 59877  31662.000000  0    2394514.931  -3111015.515  -5667594.613
10 0 59877  31782.000000  0    1742944.017  -2649089.552  -6122184.068
10 0 59877  31902.000000  0    1069736.419  -2129632.800  -6469850.686
10 0 59877  32022.000000  0     387510.272  -1561411.507  -6704601.300
10 0 59877  32142.000000  0    -291140.945   -954238.288  -6822396.944
10 0 59877  32262.000000  0    -953875.692   -318804.170  -6821213.718
99
